[
    {
        "Altitude(m)": 607897.6241482126,
        "Argument of Periapsis(deg)": 0.0,
        "Eccentricity": 0.0,
        "Inclination(deg)": 60.0,
        "Latitude(deg)": -14.292988156773637,
        "Longitude(deg)": 6.618784330855623,
        "Mean Anomaly(deg)": -16.363600000000012,
        "RAAN(deg)": 114.99999999999999,
        "Satellite Name": "Test1 527",
        "Satellite Number": 527,
        "Semi-Major Axis(m)": 6980739.136638005,
        "Time(s)": 0
    },
    {
        "Altitude(m)": 607750.8250070321,
        "Argument of Periapsis(deg)": 0.00010418945913296404,
        "Eccentricity": 0.0,
        "Inclination(deg)": 60.0,
        "Latitude(deg)": -13.758828977877073,
        "Longitude(deg)": 6.9058521862206605,
        "Mean Anomaly(deg)": -15.743493854538157,
        "RAAN(deg)": 114.99957995086024,
        "Satellite Name": "Test1 527",
        "Satellite Number": 527,
        "Semi-Major Axis(m)": 6980739.136638005,
        "Time(s)": 10
    }
]